{"type": "FeatureCollection", "features": [{"type": "Feature", "properties": {"norad_id": 25590, "name": "COSMOS 2361", "group": "musson", "lat": -61.890368687684315, "lon": 171.16926474991553, "alt_km": 972.9935425576041, "timestamp": "2025-12-21T07:34:34.787380+00:00", "meta": {"OBJECT_NAME": "COSMOS 2361", "OBJECT_ID": "1998-076A", "EPOCH": "2025-12-20T21:44:19.340160", "MEAN_MOTION": 13.73218469, "ECCENTRICITY": 0.00301775, "INCLINATION": 82.9341, "RA_OF_ASC_NODE": 338.0463, "ARG_OF_PERICENTER": 241.9348, "MEAN_ANOMALY": 135.4786, "EPHEMERIS_TYPE": 0, "CLASSIFICATION_TYPE": "U", "NORAD_CAT_ID": 25590, "ELEMENT_SET_NO": 999, "REV_AT_EPOCH": 35223, "BSTAR": 4.2156659e-05, "MEAN_MOTION_DOT": 5.4e-07, "MEAN_MOTION_DDOT": 0}, "tle": {"line1": "1 25590U 98076A   25354.90577940  .00000054  00000+0  42157-4 0  9992", "line2": "2 25590  82.9341 338.0463 0030177 241.9348 135.4786 13.73218469352239"}}, "geometry": {"type": "Point", "coordinates": [171.16926474991553, -61.890368687684315]}}, {"type": "Feature", "properties": {"norad_id": 26818, "name": "COSMOS 2378", "group": "musson", "lat": -16.09039581850723, "lon": -8.686643713003756, "alt_km": 1012.6440529715928, "timestamp": "2025-12-21T07:34:34.787397+00:00", "meta": {"OBJECT_NAME": "COSMOS 2378", "OBJECT_ID": "2001-023A", "EPOCH": "2025-12-20T13:00:00.679392", "MEAN_MOTION": 13.74142617, "ECCENTRICITY": 0.0032887, "INCLINATION": 82.927, "RA_OF_ASC_NODE": 353.9394, "ARG_OF_PERICENTER": 182.9533, "MEAN_ANOMALY": 294.0488, "EPHEMERIS_TYPE": 0, "CLASSIFICATION_TYPE": "U", "NORAD_CAT_ID": 26818, "ELEMENT_SET_NO": 999, "REV_AT_EPOCH": 23030, "BSTAR": 2.7994e-05, "MEAN_MOTION_DOT": 4.2e-07, "MEAN_MOTION_DDOT": 0}, "tle": {"line1": "1 26818U 01023A   25354.54167453  .00000042  00000+0  27994-4 0  9995", "line2": "2 26818  82.9270 353.9394 0032887 182.9533 294.0488 13.74142617230309"}}, "geometry": {"type": "Point", "coordinates": [-8.686643713003756, -16.09039581850723]}}, {"type": "Feature", "properties": {"norad_id": 27436, "name": "COSMOS 2389", "group": "musson", "lat": -41.578744750908456, "lon": 126.93832132886352, "alt_km": 1022.385199497925, "timestamp": "2025-12-21T07:34:34.787408+00:00", "meta": {"OBJECT_NAME": "COSMOS 2389", "OBJECT_ID": "2002-026A", "EPOCH": "2025-12-20T22:03:06.837696", "MEAN_MOTION": 13.75155426, "ECCENTRICITY": 0.00473102, "INCLINATION": 82.9509, "RA_OF_ASC_NODE": 300.9299, "ARG_OF_PERICENTER": 38.4645, "MEAN_ANOMALY": 19.9262, "EPHEMERIS_TYPE": 0, "CLASSIFICATION_TYPE": "U", "NORAD_CAT_ID": 27436, "ELEMENT_SET_NO": 999, "REV_AT_EPOCH": 18261, "BSTAR": 2.8802621e-05, "MEAN_MOTION_DOT": 4.3e-07, "MEAN_MOTION_DDOT": 0}, "tle": {"line1": "1 27436U 02026A   25354.91882914  .00000043  00000+0  28803-4 0  9994", "line2": "2 27436  82.9509 300.9299 0047310  38.4645  19.9262 13.75155426182610"}}, "geometry": {"type": "Point", "coordinates": [126.93832132886352, -41.578744750908456]}}, {"type": "Feature", "properties": {"norad_id": 27818, "name": "COSMOS 2398", "group": "musson", "lat": 82.90099147207059, "lon": -9.974555672194281, "alt_km": 959.4325390454369, "timestamp": "2025-12-21T07:34:34.787418+00:00", "meta": {"OBJECT_NAME": "COSMOS 2398", "OBJECT_ID": "2003-023A", "EPOCH": "2025-12-20T20:58:25.260672", "MEAN_MOTION": 13.72386495, "ECCENTRICITY": 0.00327219, "INCLINATION": 82.9484, "RA_OF_ASC_NODE": 266.7043, "ARG_OF_PERICENTER": 90.1193, "MEAN_ANOMALY": 337.6843, "EPHEMERIS_TYPE": 0, "CLASSIFICATION_TYPE": "U", "NORAD_CAT_ID": 27818, "ELEMENT_SET_NO": 999, "REV_AT_EPOCH": 12928, "BSTAR": 5.0232635e-05, "MEAN_MOTION_DOT": 6.1e-07, "MEAN_MOTION_DDOT": 0}, "tle": {"line1": "1 27818U 03023A   25354.87390348  .00000061  00000+0  50233-4 0  9998", "line2": "2 27818  82.9484 266.7043 0032721  90.1193 337.6843 13.72386495129283"}}, "geometry": {"type": "Point", "coordinates": [-9.974555672194281, 82.90099147207059]}}, {"type": "Feature", "properties": {"norad_id": 28380, "name": "COSMOS 2407", "group": "musson", "lat": 45.643229218523345, "lon": -146.19662484979264, "alt_km": 944.5771236285673, "timestamp": "2025-12-21T07:34:34.787428+00:00", "meta": {"OBJECT_NAME": "COSMOS 2407", "OBJECT_ID": "2004-028A", "EPOCH": "2025-12-20T20:56:10.980384", "MEAN_MOTION": 13.76314595, "ECCENTRICITY": 0.00399571, "INCLINATION": 82.9598, "RA_OF_ASC_NODE": 206.8713, "ARG_OF_PERICENTER": 32.6674, "MEAN_ANOMALY": 338.0348, "EPHEMERIS_TYPE": 0, "CLASSIFICATION_TYPE": "U", "NORAD_CAT_ID": 28380, "ELEMENT_SET_NO": 999, "REV_AT_EPOCH": 7535, "BSTAR": 5.6590013e-05, "MEAN_MOTION_DOT": 7.1e-07, "MEAN_MOTION_DDOT": 0}, "tle": {"line1": "1 28380U 04028A   25354.87234931  .00000071  00000+0  56590-4 0  9997", "line2": "2 28380  82.9598 206.8713 0039957  32.6674 338.0348 13.76314595 75355"}}, "geometry": {"type": "Point", "coordinates": [-146.19662484979264, 45.643229218523345]}}, {"type": "Feature", "properties": {"norad_id": 28521, "name": "COSMOS 2414", "group": "musson", "lat": -52.751659512437904, "lon": 168.80689227137577, "alt_km": 972.6070514499061, "timestamp": "2025-12-21T07:34:34.787438+00:00", "meta": {"OBJECT_NAME": "COSMOS 2414", "OBJECT_ID": "2005-002A", "EPOCH": "2025-12-20T21:27:11.370240", "MEAN_MOTION": 13.8790401, "ECCENTRICITY": 0.00412857, "INCLINATION": 82.9488, "RA_OF_ASC_NODE": 178.4938, "ARG_OF_PERICENTER": 117.028, "MEAN_ANOMALY": 243.5107, "EPHEMERIS_TYPE": 0, "CLASSIFICATION_TYPE": "U", "NORAD_CAT_ID": 28521, "ELEMENT_SET_NO": 999, "REV_AT_EPOCH": 5908, "BSTAR": 4.2049774e-05, "MEAN_MOTION_DOT": 6.6e-07, "MEAN_MOTION_DDOT": 0}, "tle": {"line1": "1 28521U 05002A   25354.89388160  .00000066  00000+0  42050-4 0  9993", "line2": "2 28521  82.9488 178.4938 0041285 117.0280 243.5107 13.87904010 59085"}}, "geometry": {"type": "Point", "coordinates": [168.80689227137577, -52.751659512437904]}}, {"type": "Feature", "properties": {"norad_id": 32052, "name": "COSMOS 2429", "group": "musson", "lat": 47.29615423504367, "lon": -15.341815973187007, "alt_km": 953.0957761607315, "timestamp": "2025-12-21T07:34:34.787448+00:00", "meta": {"OBJECT_NAME": "COSMOS 2429", "OBJECT_ID": "2007-038A", "EPOCH": "2025-12-20T15:37:49.353888", "MEAN_MOTION": 13.75150176, "ECCENTRICITY": 0.00387896, "INCLINATION": 82.9806, "RA_OF_ASC_NODE": 337.4761, "ARG_OF_PERICENTER": 16.1605, "MEAN_ANOMALY": 344.0778, "EPHEMERIS_TYPE": 0, "CLASSIFICATION_TYPE": "U", "NORAD_CAT_ID": 32052, "ELEMENT_SET_NO": 999, "REV_AT_EPOCH": 91711, "BSTAR": 3.5982593e-05, "MEAN_MOTION_DOT": 5e-07, "MEAN_MOTION_DDOT": 0}, "tle": {"line1": "1 32052U 07038A   25354.65126567  .00000050  00000+0  35983-4 0  9993", "line2": "2 32052  82.9806 337.4761 0038789  16.1605 344.0778 13.75150176917110"}}, "geometry": {"type": "Point", "coordinates": [-15.341815973187007, 47.29615423504367]}}, {"type": "Feature", "properties": {"norad_id": 35635, "name": "COSMOS 2454", "group": "musson", "lat": 58.743772675703475, "lon": 173.89806646020907, "alt_km": 908.6135055161376, "timestamp": "2025-12-21T07:34:34.787458+00:00", "meta": {"OBJECT_NAME": "COSMOS 2454", "OBJECT_ID": "2009-039A", "EPOCH": "2025-12-20T21:43:13.784160", "MEAN_MOTION": 13.89929569, "ECCENTRICITY": 0.00202052, "INCLINATION": 82.9556, "RA_OF_ASC_NODE": 162.4551, "ARG_OF_PERICENTER": 51.8281, "MEAN_ANOMALY": 113.9985, "EPHEMERIS_TYPE": 0, "CLASSIFICATION_TYPE": "U", "NORAD_CAT_ID": 35635, "ELEMENT_SET_NO": 999, "REV_AT_EPOCH": 83263, "BSTAR": 3.1554249e-05, "MEAN_MOTION_DOT": 5.5e-07, "MEAN_MOTION_DDOT": 0}, "tle": {"line1": "1 35635U 09039A   25354.90502065  .00000055  00000+0  31554-4 0  9990", "line2": "2 35635  82.9556 162.4551 0020205  51.8281 113.9985 13.89929569832636"}}, "geometry": {"type": "Point", "coordinates": [173.89806646020907, 58.743772675703475]}}, {"type": "Feature", "properties": {"norad_id": 36519, "name": "COSMOS 2463", "group": "musson", "lat": -74.44386240939022, "lon": -133.23936740558133, "alt_km": 975.5824917267992, "timestamp": "2025-12-21T07:34:34.787467+00:00", "meta": {"OBJECT_NAME": "COSMOS 2463", "OBJECT_ID": "2010-017A", "EPOCH": "2025-12-20T20:40:15.863808", "MEAN_MOTION": 13.71649799, "ECCENTRICITY": 0.00347454, "INCLINATION": 82.9604, "RA_OF_ASC_NODE": 20.7441, "ARG_OF_PERICENTER": 264.6764, "MEAN_ANOMALY": 268.9707, "EPHEMERIS_TYPE": 0, "CLASSIFICATION_TYPE": "U", "NORAD_CAT_ID": 36519, "ELEMENT_SET_NO": 999, "REV_AT_EPOCH": 78348, "BSTAR": 3.9818985e-05, "MEAN_MOTION_DOT": 5.1e-07, "MEAN_MOTION_DDOT": 0}, "tle": {"line1": "1 36519U 10017A   25354.86129472  .00000051  00000+0  39819-4 0  9990", "line2": "2 36519  82.9604  20.7441 0034745 264.6764 268.9707 13.71649799783486"}}, "geometry": {"type": "Point", "coordinates": [-133.23936740558133, -74.44386240939022]}}]}